STARLINK-5582           
1 56777U 23078L   23170.54629901  .00017193  00000+0  14437-3 0  9993
2 56777  70.0008 359.1265 0003604 271.7830  88.2953 15.69938258  3072
STARLINK-6304           
1 56778U 23078M   23170.54692949  .00005959  00000+0  51277-4 0  9997
2 56778  70.0009 359.1320 0003226 268.8114  91.2712 15.69931730  3073
STARLINK-6231           
1 56779U 23078N   23170.54577386  .00034455  00000+0  28707-3 0  9999
2 56779  70.0010 359.1237 0003520 263.4705  96.6090 15.69929394  3078
STARLINK-5963           
1 56780U 23078P   23170.54619348  .00013115  00000+0  11062-3 0  9992
2 56780  70.0008 359.1269 0003638 267.2461  92.8318 15.69933763  3079
STARLINK-5989           
1 56781U 23078Q   23170.54535235  .00047153  00000+0  39162-3 0  9995
2 56781  70.0008 359.1210 0003792 266.6262  93.4500 15.69928385  3073
STARLINK-6352           
1 56782U 23078R   23170.54682541  .00015420  00000+0  12974-3 0  9993
2 56782  70.0008 359.1304 0003671 266.0711  94.0065 15.69929600  3071
STARLINK-6357           
1 56783U 23078S   23170.54651183  .00030909  00000+0  25769-3 0  9997
2 56783  70.0008 359.1274 0003659 267.2542  92.8235 15.69940506  3072
STARLINK-6354           
1 56784U 23078T   23170.54672232  .00040477  00000+0  33674-3 0  9991
2 56784  70.0007 359.1300 0003284 274.8536  85.2284 15.69926584  3073
STARLINK-5931           
1 56785U 23078U   23170.54556042  .00000290  00000+0  41814-5 0  9998
2 56785  70.0017 359.1250 0003405 257.3632 102.7183 15.69926297  3767
STARLINK-6341           
1 56786U 23078V   23170.54640536  .00040470  00000+0  33665-3 0  9998
2 56786  70.0011 359.1296 0003235 263.7517  96.3311 15.69929231  3072
STARLINK-6326           
1 56787U 23078W   23170.54587933  .00039634  00000+0  32968-3 0  9995
2 56787  70.0010 359.1243 0003534 266.6114  93.4678 15.69934167  3079
STARLINK-6336           
1 56788U 23078X   23170.54608811  .00004875  00000+0  42282-4 0  9995
2 56788  70.0016 359.1281 0003420 261.2263  98.8545 15.69926759  3078
STARLINK-6325           
1 56789U 23078Y   23170.54482185  .00006001  00000+0  51619-4 0  9997
2 56789  70.0020 359.1222 0003481 256.2647 103.8161 15.69932146  3748
STARLINK-6345           
1 56790U 23078Z   23170.54598200  .00045271  00000+0  37611-3 0  9992
2 56790  70.0018 359.1265 0003288 256.6300 103.4529 15.69932407  3079
STARLINK-5977           
1 56791U 23078AA  23170.54514143  .00035101  00000+0  29242-3 0  9999
2 56791  70.0012 359.1205 0003719 265.3190  94.7581 15.69926363  3075
STARLINK-6046           
1 56792U 23078AB  23170.54566747  .00014091  00000+0  11872-3 0  9992
2 56792  70.0008 359.1235 0003526 271.0190  89.0602 15.69931599  3072
STARLINK-6052           
1 56793U 23078AC  23170.54429916  .00035168  00000+0  29302-3 0  9994
2 56793  70.0008 359.1179 0003295 273.9544  86.1275 15.69924124  3077
STARLINK-6060           
1 56794U 23078AD  23170.54524402  .00050548  00000+0  41938-3 0  9999
2 56794  70.0020 359.1242 0003488 251.9956 108.0860 15.69937430  3078
STARLINK-6061           
1 56795U 23078AE  23170.54366578  .00052354  00000+0  43439-3 0  9993
2 56795  70.0011 359.1149 0003627 273.7441  86.3340 15.69927089  3071
STARLINK-6049           
1 56796U 23078AF  23170.54545711  .00041543  00000+0  34553-3 0  9997
2 56796  70.0014 359.1228 0003579 260.5594  99.5197 15.69924667  3077
STARLINK-6058           
1 56797U 23078AG  23170.54450754  .00014724  00000+0  12393-3 0  9999
2 56797  70.0008 359.1177 0003618 265.5390  94.5392 15.69937201  3077
STARLINK-6068           
1 56798U 23078AH  23170.54503545  .00027145  00000+0  22680-3 0  9998
2 56798  70.0011 359.1211 0003344 265.3913  94.6901 15.69923359  3746
STARLINK-5953           
1 56799U 23078AJ  23170.54313918  .00010692  00000+0  90557-4 0  9990
2 56799  70.0009 359.1125 0003637 270.7470  89.3309 15.69926954  3074
STARLINK-6036           
1 56800U 23078AK  23170.54492842  .00003878  00000+0  33998-4 0  9991
2 56800  70.0015 359.1222 0003587 261.7015  98.3774 15.69927325  3070
STARLINK-6087           
1 56801U 23078AL  23170.54387593  .00014433  00000+0  12154-3 0  9997
2 56801  70.0013 359.1164 0003487 261.9250  98.1550 15.69934610  3071
STARLINK-6070           
1 56802U 23078AM  23170.54461331  .00004772  00000+0  41424-4 0  9999
2 56802  70.0008 359.1197 0003486 265.8190  94.2608 15.69928222  3070
STARLINK-6029           
1 56803U 23078AN  23170.54408780  .00037505  00000+0  31225-3 0  9996
2 56803  70.0010 359.1163 0003528 268.2789  91.8003 15.69926212  3074
STARLINK-6069           
1 56804U 23078AP  23170.54471966  .00042664  00000+0  35466-3 0  9996
2 56804  70.0014 359.1207 0003391 258.2300 101.8516 15.69932557  3748
STARLINK-6064           
1 56805U 23078AQ  23170.54419309  .00009268  00000+0  78746-4 0  9992
2 56805  70.0010 359.1160 0003609 265.9236  94.1548 15.69928641  3072
STARLINK-6072           
1 56806U 23078AR  23170.54440195  .00014417  00000+0  12141-3 0  9998
2 56806  70.0009 359.1189 0003534 268.7677  91.3114 15.69934340  3070
STARLINK-6073           
1 56807U 23078AS  23170.54324527  .00038466  00000+0  32013-3 0  9999
2 56807  70.0010 359.1128 0003403 274.2577  85.8229 15.69929650  3075
STARLINK-6042           
1 56808U 23078AT  23170.54334999  .00038269  00000+0  31850-3 0  9993
2 56808  70.0008 359.1136 0003611 273.3859  86.6923 15.69929351  3074
STARLINK-6040           
1 56809U 23078AU  23170.54345482  .00005169  00000+0  44726-4 0  9993
2 56809  70.0005 359.1124 0003725 276.0888  83.9883 15.69925608  3073
STARLINK-6031           
1 56810U 23078AV  23170.54398107  .00011351  00000+0  96008-4 0  9997
2 56810  70.0017 359.1180 0003466 261.8169  98.2633 15.69931795  3072
STARLINK-6063           
1 56811U 23078AW  23170.54292816  .00012061  00000+0  10186-3 0  9999
2 56811  70.0010 359.1113 0003681 264.3808  95.6968 15.69939824  3072
STARLINK-6065           
1 56812U 23078AX  23170.54356014  .00019209  00000+0  16107-3 0  9991
2 56812  70.0010 359.1153 0003434 266.5864  93.4939 15.69936143  3074
STARLINK-6056           
1 56813U 23078AY  23170.54282205  .00017957  00000+0  15073-3 0  9991
2 56813  70.0013 359.1114 0003599 271.8210  88.2573 15.69932178  3071
STARLINK-6059           
1 56814U 23078AZ  23170.54303335  .00016544  00000+0  13903-3 0  9991
2 56814  70.0008 359.1129 0003580 272.0890  87.9896 15.69932772  3073
STARLINK-6057           
1 56815U 23078BA  23170.54261131  .00013821  00000+0  11649-3 0  9999
2 56815  70.0014 359.1101 0003642 272.2238  87.8541 15.69929894  3075
STARLINK-6067           
1 56816U 23078BB  23170.54271701  .00007020  00000+0  60102-4 0  9997
2 56816  70.0018 359.1128 0003386 263.4172  96.6638 15.69924174  3074
STARLINK-5982           
1 56817U 23078BC  23170.54377191  .00012015  00000+0  10152-3 0  9997
2 56817  70.0011 359.1135 0003568 270.2233  89.8554 15.69929546  3071
STARLINK-6028           
1 56818U 23078BD  23170.54250573  .00014403  00000+0  12129-3 0  9991
2 56818  70.0009 359.1102 0003821 267.9046  92.1712 15.69933832  3762
STARLINK-30119          
1 56823U 23079A   23170.58334491 -.01659598  00000+0 -24834-1 0  9991
2 56823  43.0009 123.5911 0002249 270.6605 102.0536 15.57094690  2844
STARLINK-30120          
1 56824U 23079B   23170.58334491 -.01659064  00000+0 -24814-1 0  9998
2 56824  43.0010 123.5900 0002135 268.7158 104.4893 15.57107667  2841
STARLINK-30084          
1 56825U 23079C   23170.58334491 -.01666232  00000+0 -24920-1 0  9992
2 56825  43.0010 123.5888 0001569 293.5917  80.0851 15.57127211  2846
STARLINK-30114          
1 56826U 23079D   23170.58334491  .00179473  00000+0  10705-2 0  9993
2 56826  43.0035 123.1687 0002745 183.4749   0.2312 15.76604946  2857
STARLINK-30151          
1 56827U 23079E   23170.58334491 -.01661584  00000+0 -24813-1 0  9990
2 56827  43.0008 123.5867 0002082 270.3480 104.2827 15.57153950  1302
STARLINK-30152          
1 56828U 23079F   23170.58334491 -.01659819  00000+0 -24770-1 0  9991
2 56828  43.0009 123.5866 0002169 271.9429 103.1626 15.57167712  2845
STARLINK-30139          
1 56829U 23079G   23170.58334491  .00403472  71278-4  10801-2 0  9992
2 56829  43.0044 121.8343 0004033 248.5244 107.1881 15.93655295  2860
STARLINK-30134          
1 56830U 23079H   23170.34546998  .00250984  00000+0  76614-3 0  9998
2 56830  43.0050 123.4922 0003088 280.2913  79.7614 15.90517176  3158
STARLINK-30128          
1 56832U 23079K   23170.58334491  .00252688  00000+0  83626-3 0  9993
2 56832  43.0035 122.1533 0005175 224.3732   5.6433 15.88906971  2860
STARLINK-30131          
1 56833U 23079L   23170.58334491 -.00112832  00000+0 -77773-3 0  9998
2 56833  43.0039 122.9457 0001842 257.7409  16.1922 15.73935607  1306
STARLINK-30069          
1 56834U 23079M   23170.58030619 -.00693450  00000+0 -96710-2 0  9995
2 56834  43.0012 123.5998 0000372 223.2376 136.8457 15.58384163  3171
STARLINK-30144          
1 56835U 23079N   23170.58334491 -.01658368  00000+0 -24679-1 0  9995
2 56835  43.0009 123.5806 0002149 271.1175 106.3750 15.57239552  2840
STARLINK-30142          
1 56836U 23079P   23170.58334491 -.01659373  00000+0 -24682-1 0  9997
2 56836  43.0009 123.5797 0002162 273.4347 104.5396 15.57254036  2841
STARLINK-30133          
1 56837U 23079Q   23170.58334491 -.01659180  00000+0 -24650-1 0  9999
2 56837  43.0010 123.5766 0002039 267.9620 110.9445 15.57286124  2844
STARLINK-30123          
1 56838U 23079R   23170.58334491 -.01658667  00000+0 -15853-1 0  9994
2 56838  43.0011 123.2325 0001610 257.6844 260.7472 15.68896572  2853
STARLINK-30076          
1 56839U 23079S   23170.58334491 -.01658151  00000+0 -24621-1 0  9996
2 56839  43.0010 123.5758 0001989 281.4127  97.9693 15.57299484  2845
STARLINK-30073          
1 56840U 23079T   23170.58334491 -.00634142  00000+0 -47570-2 0  9990
2 56840  43.0020 123.0687 0001395 263.6110 320.2516 15.73480093  2852
